ORBCOMM FM37            
1 33064U 08031E   24302.56723257  .00007331  00000+0  10342-2 0  9991
2 33064  48.4412   3.4199 0004763  97.4665  43.7128 14.77936819879761
ORBCOMM FM40            
1 33065U 08031F   24302.43590624  .00008955  00000+0  12069-2 0  9999
2 33065  48.4430 351.5611 0005997 107.8815 265.6272 14.79647179879812
VESSELSAT 1             
1 37840U 11058C   24302.54676626  .00000757  00000+0  26839-3 0  9999
2 37840  19.9626  55.4404 0013635 158.1930 201.9057 14.11245712673541
ORBCOMM FM109           
1 40086U 14040A   24302.53676310  .00004929  00000+0  11119-2 0  9997
2 40086  47.0042  29.7425 0002732 306.9271  53.1363 14.57426042547268
ORBCOMM FM107           
1 40087U 14040B   24302.50430035  .00004107  00000+0  93389-3 0  9995
2 40087  47.0059  30.9078 0002311 283.8789  76.1839 14.57368362547336
ORBCOMM FM106           
1 40088U 14040C   24302.49338286  .00006198  00000+0  10966-2 0  9990
2 40088  47.0591 231.2885 0017211  70.3077 289.9669 14.68104647549416
ORBCOMM FM111           
1 40089U 14040D   24302.19888263  .00009380  00000+0  11373-2 0  9992
2 40089  47.0016 113.1175 0032111 166.1289 194.0496 14.83638553555746
ORBCOMM FM104           
1 40090U 14040E   24302.51791425  .00004352  00000+0  10189-2 0  9991
2 40090  47.0049  61.7221 0017650 228.3675 131.5698 14.55819297546852
